[{"OBJECT_NAME":"OPTOS","OBJECT_ID":"2013-066E","EPOCH":"2026-03-09T15:19:15.595680","MEAN_MOTION":14.72053406,"ECCENTRICITY":0.01165171,"INCLINATION":97.6953,"RA_OF_ASC_NODE":298.8825,"ARG_OF_PERICENTER":333.077,"MEAN_ANOMALY":26.4421,"EPHEMERIS_TYPE":0,"CLASSIFICATION_TYPE":"U","NORAD_CAT_ID":39420,"ELEMENT_SET_NO":999,"REV_AT_EPOCH":65687,"BSTAR":0.00029036666,"MEAN_MOTION_DOT":1.977e-5,"MEAN_MOTION_DDOT":0},{"OBJECT_NAME":"STARLINK-32900","OBJECT_ID":"2025-037S","EPOCH":"2026-03-09T21:27:27.753408","MEAN_MOTION":14.98334642,"ECCENTRICITY":0.00024557,"INCLINATION":70.0044,"RA_OF_ASC_NODE":353.9042,"ARG_OF_PERICENTER":261.8382,"MEAN_ANOMALY":98.2498,"EPHEMERIS_TYPE":0,"CLASSIFICATION_TYPE":"U","NORAD_CAT_ID":63093,"ELEMENT_SET_NO":999,"REV_AT_EPOCH":5849,"BSTAR":0.00067469364,"MEAN_MOTION_DOT":7.967e-5,"MEAN_MOTION_DDOT":0}]
